SENTINEL-5P             
1 42969U 17064A   26193.78826124  .00000004  00000+0  23052-4 0  9996
2 42969  98.7929 135.7382 0001105  92.5141 267.6162 14.19523062453199
